{"fetched_at":"2026-07-22T07:09:25.426Z","source":"https://celestrak.org/NORAD/elements/gp.php?GROUP=qianfan&FORMAT=JSON","constellation":"qianfan","records":[{"OBJECT_NAME":"QIANFAN-209","OBJECT_ID":"2026-153J","EPOCH":"2026-07-21T13:52:49.598112","CLASSIFICATION_TYPE":"U","MEAN_MOTION":14.19691125,"ECCENTRICITY":0.00083664,"INCLINATION":88.993,"RA_OF_ASC_NODE":358.3159,"ARG_OF_PERICENTER":156.0727,"MEAN_ANOMALY":204.0854,"EPHEMERIS_TYPE":0,"NORAD_CAT_ID":69808,"ELEMENT_SET_NO":999,"REV_AT_EPOCH":245,"BSTAR":0.000029534803,"MEAN_MOTION_DOT":7.7e-7,"MEAN_MOTION_DDOT":0},{"OBJECT_NAME":"QIANFAN-210","OBJECT_ID":"2026-153K","EPOCH":"2026-07-21T13:45:40.084704","CLASSIFICATION_TYPE":"U","MEAN_MOTION":14.17626608,"ECCENTRICITY":0.00147101,"INCLINATION":88.9925,"RA_OF_ASC_NODE":358.3153,"ARG_OF_PERICENTER":173.7647,"MEAN_ANOMALY":186.3727,"EPHEMERIS_TYPE":0,"NORAD_CAT_ID":69809,"ELEMENT_SET_NO":999,"REV_AT_EPOCH":245,"BSTAR":-1.1212197,"MEAN_MOTION_DOT":-0.02104282,"MEAN_MOTION_DDOT":0},{"OBJECT_NAME":"QIANFAN-211","OBJECT_ID":"2026-153L","EPOCH":"2026-07-21T13:44:35.365920","CLASSIFICATION_TYPE":"U","MEAN_MOTION":14.20224166,"ECCENTRICITY":0.00079068,"INCLINATION":88.9929,"RA_OF_ASC_NODE":358.3145,"ARG_OF_PERICENTER":157.1281,"MEAN_ANOMALY":203.0263,"EPHEMERIS_TYPE":0,"NORAD_CAT_ID":69810,"ELEMENT_SET_NO":999,"REV_AT_EPOCH":245,"BSTAR":0.000029323809,"MEAN_MOTION_DOT":7.7e-7,"MEAN_MOTION_DDOT":0},{"OBJECT_NAME":"QIANFAN-212","OBJECT_ID":"2026-153M","EPOCH":"2026-07-21T13:35:48.293088","CLASSIFICATION_TYPE":"U","MEAN_MOTION":14.20819522,"ECCENTRICITY":0.00090401,"INCLINATION":88.9931,"RA_OF_ASC_NODE":358.3137,"ARG_OF_PERICENTER":161.9335,"MEAN_ANOMALY":198.2178,"EPHEMERIS_TYPE":0,"NORAD_CAT_ID":69811,"ELEMENT_SET_NO":999,"REV_AT_EPOCH":245,"BSTAR":0.000030315817,"MEAN_MOTION_DOT":8e-7,"MEAN_MOTION_DDOT":0},{"OBJECT_NAME":"QIANFAN-213","OBJECT_ID":"2026-153N","EPOCH":"2026-07-17T21:48:21.510720","CLASSIFICATION_TYPE":"U","MEAN_MOTION":14.21939575,"ECCENTRICITY":0.00078274,"INCLINATION":88.9917,"RA_OF_ASC_NODE":358.7338,"ARG_OF_PERICENTER":155.5754,"MEAN_ANOMALY":204.5809,"EPHEMERIS_TYPE":0,"NORAD_CAT_ID":69812,"ELEMENT_SET_NO":999,"REV_AT_EPOCH":193,"BSTAR":-0.9822754,"MEAN_MOTION_DOT":-0.02004805,"MEAN_MOTION_DDOT":0},{"OBJECT_NAME":"QIANFAN-214","OBJECT_ID":"2026-153P","EPOCH":"2026-07-21T13:23:24.137664","CLASSIFICATION_TYPE":"U","MEAN_MOTION":14.25492071,"ECCENTRICITY":0.0008625,"INCLINATION":88.9929,"RA_OF_ASC_NODE":358.3124,"ARG_OF_PERICENTER":162.6131,"MEAN_ANOMALY":197.5359,"EPHEMERIS_TYPE":0,"NORAD_CAT_ID":69813,"ELEMENT_SET_NO":999,"REV_AT_EPOCH":245,"BSTAR":0.000032023837,"MEAN_MOTION_DOT":9e-7,"MEAN_MOTION_DDOT":0},{"OBJECT_NAME":"QIANFAN-215","OBJECT_ID":"2026-153Q","EPOCH":"2026-07-21T13:20:30.527232","CLASSIFICATION_TYPE":"U","MEAN_MOTION":14.26680018,"ECCENTRICITY":0.00086352,"INCLINATION":88.9928,"RA_OF_ASC_NODE":358.3118,"ARG_OF_PERICENTER":164.4954,"MEAN_ANOMALY":195.6506,"EPHEMERIS_TYPE":0,"NORAD_CAT_ID":69814,"ELEMENT_SET_NO":999,"REV_AT_EPOCH":245,"BSTAR":0.000032301374,"MEAN_MOTION_DOT":9.3e-7,"MEAN_MOTION_DDOT":0},{"OBJECT_NAME":"QIANFAN-216","OBJECT_ID":"2026-153R","EPOCH":"2026-07-21T13:20:29.300352","CLASSIFICATION_TYPE":"U","MEAN_MOTION":14.2667716,"ECCENTRICITY":0.00088701,"INCLINATION":88.9929,"RA_OF_ASC_NODE":358.3121,"ARG_OF_PERICENTER":164.7989,"MEAN_ANOMALY":195.3473,"EPHEMERIS_TYPE":0,"NORAD_CAT_ID":69815,"ELEMENT_SET_NO":999,"REV_AT_EPOCH":245,"BSTAR":0.0000808055,"MEAN_MOTION_DOT":0.0000021,"MEAN_MOTION_DDOT":0},{"OBJECT_NAME":"QIANFAN-217","OBJECT_ID":"2026-153S","EPOCH":"2026-07-21T13:19:32.284128","CLASSIFICATION_TYPE":"U","MEAN_MOTION":14.26768573,"ECCENTRICITY":0.00083848,"INCLINATION":88.9928,"RA_OF_ASC_NODE":358.3118,"ARG_OF_PERICENTER":162.2753,"MEAN_ANOMALY":197.8735,"EPHEMERIS_TYPE":0,"NORAD_CAT_ID":69816,"ELEMENT_SET_NO":999,"REV_AT_EPOCH":245,"BSTAR":0.000032105621,"MEAN_MOTION_DOT":9.2e-7,"MEAN_MOTION_DDOT":0},{"OBJECT_NAME":"QIANFAN-218","OBJECT_ID":"2026-153T","EPOCH":"2026-07-21T13:18:48.642624","CLASSIFICATION_TYPE":"U","MEAN_MOTION":14.26812339,"ECCENTRICITY":0.00081532,"INCLINATION":88.993,"RA_OF_ASC_NODE":358.3123,"ARG_OF_PERICENTER":159.7536,"MEAN_ANOMALY":200.3983,"EPHEMERIS_TYPE":0,"NORAD_CAT_ID":69817,"ELEMENT_SET_NO":999,"REV_AT_EPOCH":245,"BSTAR":0.000072930431,"MEAN_MOTION_DOT":0.00000191,"MEAN_MOTION_DDOT":0},{"OBJECT_NAME":"QIANFAN-219","OBJECT_ID":"2026-155A","EPOCH":"2026-07-21T14:36:28.815840","CLASSIFICATION_TYPE":"U","MEAN_MOTION":14.20460017,"ECCENTRICITY":0.00319911,"INCLINATION":89.0055,"RA_OF_ASC_NODE":60.2163,"ARG_OF_PERICENTER":200.2836,"MEAN_ANOMALY":159.7086,"EPHEMERIS_TYPE":0,"NORAD_CAT_ID":69848,"ELEMENT_SET_NO":999,"REV_AT_EPOCH":229,"BSTAR":-1.0032406,"MEAN_MOTION_DOT":-0.02001298,"MEAN_MOTION_DDOT":0},{"OBJECT_NAME":"QIANFAN-220","OBJECT_ID":"2026-155B","EPOCH":"2026-07-21T13:50:17.798496","CLASSIFICATION_TYPE":"U","MEAN_MOTION":14.14401525,"ECCENTRICITY":0.00319208,"INCLINATION":89.0055,"RA_OF_ASC_NODE":60.2299,"ARG_OF_PERICENTER":198.9688,"MEAN_ANOMALY":161.0313,"EPHEMERIS_TYPE":0,"NORAD_CAT_ID":69849,"ELEMENT_SET_NO":999,"REV_AT_EPOCH":228,"BSTAR":-1.1149424,"MEAN_MOTION_DOT":-0.01987538,"MEAN_MOTION_DDOT":0},{"OBJECT_NAME":"QIANFAN-221","OBJECT_ID":"2026-155C","EPOCH":"2026-07-21T14:30:17.261280","CLASSIFICATION_TYPE":"U","MEAN_MOTION":14.21088984,"ECCENTRICITY":0.00304167,"INCLINATION":89.0058,"RA_OF_ASC_NODE":60.2154,"ARG_OF_PERICENTER":208.0661,"MEAN_ANOMALY":151.8891,"EPHEMERIS_TYPE":0,"NORAD_CAT_ID":69850,"ELEMENT_SET_NO":999,"REV_AT_EPOCH":229,"BSTAR":-0.77153199,"MEAN_MOTION_DOT":-0.01566197,"MEAN_MOTION_DDOT":0},{"OBJECT_NAME":"QIANFAN-222","OBJECT_ID":"2026-155D","EPOCH":"2026-07-21T13:39:56.047680","CLASSIFICATION_TYPE":"U","MEAN_MOTION":14.18562778,"ECCENTRICITY":0.00291879,"INCLINATION":89.0062,"RA_OF_ASC_NODE":60.2287,"ARG_OF_PERICENTER":201.9716,"MEAN_ANOMALY":158.0224,"EPHEMERIS_TYPE":0,"NORAD_CAT_ID":69851,"ELEMENT_SET_NO":999,"REV_AT_EPOCH":228,"BSTAR":0.000019268382,"MEAN_MOTION_DOT":5.4e-7,"MEAN_MOTION_DDOT":0},{"OBJECT_NAME":"QIANFAN-223","OBJECT_ID":"2026-155E","EPOCH":"2026-07-21T13:31:51.571776","CLASSIFICATION_TYPE":"U","MEAN_MOTION":14.18585437,"ECCENTRICITY":0.00290863,"INCLINATION":89.0065,"RA_OF_ASC_NODE":60.2281,"ARG_OF_PERICENTER":201.4568,"MEAN_ANOMALY":158.5404,"EPHEMERIS_TYPE":0,"NORAD_CAT_ID":69852,"ELEMENT_SET_NO":999,"REV_AT_EPOCH":228,"BSTAR":0.000019240398,"MEAN_MOTION_DOT":5.4e-7,"MEAN_MOTION_DDOT":0},{"OBJECT_NAME":"QIANFAN-224","OBJECT_ID":"2026-155F","EPOCH":"2026-07-21T13:25:54.434784","CLASSIFICATION_TYPE":"U","MEAN_MOTION":14.20219802,"ECCENTRICITY":0.00301048,"INCLINATION":89.0049,"RA_OF_ASC_NODE":60.2256,"ARG_OF_PERICENTER":201.8588,"MEAN_ANOMALY":158.132,"EPHEMERIS_TYPE":0,"NORAD_CAT_ID":69853,"ELEMENT_SET_NO":999,"REV_AT_EPOCH":228,"BSTAR":0.00002010009,"MEAN_MOTION_DOT":5.7e-7,"MEAN_MOTION_DDOT":0}]}
